{"type": "FeatureCollection", "features": [ {"type": "Feature", "properties": {"norad_id": 30500, "name": "FENGYUN 1C DEB", "group": "fengyun-1c-debris", "lat": 5.729901099193679, "lon": 78.78482979968543, "alt_km": 822.6855483350228, "timestamp": "2025-12-14T03:55:53.064189+00:00", "meta": {"OBJECT_NAME": "FENGYUN 1C DEB", "OBJECT_ID": "1999-025AHN", "EPOCH": "2025-12-12T04:52:03.720576", "MEAN_MOTION": 14.25186793, "ECCENTRICITY": 0.00648229, "INCLINATION": 99.0723, "RA_OF_ASC_NODE": 77.6767, "ARG_OF_PERICENTER": 117.8824, "MEAN_ANOMALY": 273.0615, "EPHEMERIS_TYPE": 0, "CLASSIFICATION_TYPE": "U", "NORAD_CAT_ID": 30500, "ELEMENT_SET_NO": 999, "REV_AT_EPOCH": 96674, "BSTAR": 0.0041433504, "MEAN_MOTION_DOT": 9.916e-05, "MEAN_MOTION_DDOT": 0}, "tle": {"line1": "1 30500U 99025AHN 25346.20282084  .00009916  00000+0  41434-2 0  9991", "line2": "2 30500  99.0723  77.6767 0064822 117.8824 273.0615 14.25186793966745"}}, "geometry": {"type": "Point", "coordinates": [78.78482979968543, 5.729901099193679]}}, {"type": "Feature", "properties": {"norad_id": 30501, "name": "FENGYUN 1C DEB", "group": "fengyun-1c-debris", "lat": -44.41628814825376, "lon": -11.96167739826348, "alt_km": 826.7117450096503, "timestamp": "2025-12-14T03:55:53.064199+00:00", "meta": {"OBJECT_NAME": "FENGYUN 1C DEB", "OBJECT_ID": "1999-025AHP", "EPOCH": "2025-12-11T22:22:20.143776", "MEAN_MOTION": 14.25330893, "ECCENTRICITY": 0.004061, "INCLINATION": 99.0845, "RA_OF_ASC_NODE": 336.7088, "ARG_OF_PERICENTER": 205.1912, "MEAN_ANOMALY": 184.7235, "EPHEMERIS_TYPE": 0, "CLASSIFICATION_TYPE": "U", "NORAD_CAT_ID": 30501, "ELEMENT_SET_NO": 999, "REV_AT_EPOCH": 96908, "BSTAR": 0.0025286, "MEAN_MOTION_DOT": 5.965e-05, "MEAN_MOTION_DDOT": 0}, "tle": {"line1": "1 30501U 99025AHP 25345.93217759  .00005965  00000+0  25286-2 0  9995", "line2": "2 30501  99.0845 336.7088 0040610 205.1912 184.7235 14.25330893969082"}}, "geometry": {"type": "Point", "coordinates": [-11.96167739826348, -44.41628814825376]}}, {"type": "Feature", "properties": {"norad_id": 30503, "name": "FENGYUN 1C DEB", "group": "fengyun-1c-debris", "lat": 55.6834962352754, "lon": 25.47238132799685, "alt_km": 837.6470727358374, "timestamp": "2025-12-14T03:55:53.064209+00:00", "meta": {"OBJECT_NAME": "FENGYUN 1C DEB", "OBJECT_ID": "1999-025AHR", "EPOCH": "2025-12-13T07:49:33.750048", "MEAN_MOTION": 14.16126109, "ECCENTRICITY": 0.00082831, "INCLINATION": 99.2044, "RA_OF_ASC_NODE": 190.8651, "ARG_OF_PERICENTER": 264.8278, "MEAN_ANOMALY": 269.9796, "EPHEMERIS_TYPE": 0, "CLASSIFICATION_TYPE": "U", "NORAD_CAT_ID": 30503, "ELEMENT_SET_NO": 999, "REV_AT_EPOCH": 97354, "BSTAR": 0.0004095134, "MEAN_MOTION_DOT": 7.62e-06, "MEAN_MOTION_DDOT": 0}, "tle": {"line1": "1 30503U 99025AHR 25347.32608507  .00000762  00000+0  40951-3 0  9994", "line2": "2 30503  99.2044 190.8651 0008283 264.8278 269.9796 14.16126109973546"}}, "geometry": {"type": "Point", "coordinates": [25.47238132799685, 55.6834962352754]}}, {"type": "Feature", "properties": {"norad_id": 30504, "name": "FENGYUN 1C DEB", "group": "fengyun-1c-debris", "lat": -1.1941106906737573, "lon": 34.56341517966641, "alt_km": 893.7943888272785, "timestamp": "2025-12-14T03:55:53.064219+00:00", "meta": {"OBJECT_NAME": "FENGYUN 1C DEB", "OBJECT_ID": "1999-025AHS", "EPOCH": "2025-12-11T01:38:46.526784", "MEAN_MOTION": 14.2048578, "ECCENTRICITY": 0.01120841, "INCLINATION": 99.0255, "RA_OF_ASC_NODE": 31.2149, "ARG_OF_PERICENTER": 221.2173, "MEAN_ANOMALY": 157.6074, "EPHEMERIS_TYPE": 0, "CLASSIFICATION_TYPE": "U", "NORAD_CAT_ID": 30504, "ELEMENT_SET_NO": 999, "REV_AT_EPOCH": 97370, "BSTAR": 0.00077210917, "MEAN_MOTION_DOT": 1.719e-05, "MEAN_MOTION_DDOT": 0}, "tle": {"line1": "1 30504U 99025AHS 25345.06859406  .00001719  00000+0  77211-3 0  9992", "line2": "2 30504  99.0255  31.2149 0112084 221.2173 157.6074 14.20485780973703"}}, "geometry": {"type": "Point", "coordinates": [34.56341517966641, -1.1941106906737573]}}, {"type": "Feature", "properties": {"norad_id": 30505, "name": "FENGYUN 1C DEB", "group": "fengyun-1c-debris", "lat": -80.42729196443699, "lon": 179.09846539058668, "alt_km": 785.2703569775776, "timestamp": "2025-12-14T03:55:53.064229+00:00", "meta": {"OBJECT_NAME": "FENGYUN 1C DEB", "OBJECT_ID": "1999-025AHT", "EPOCH": "2025-12-13T04:51:27.710784", "MEAN_MOTION": 14.22041177, "ECCENTRICITY": 0.00638037, "INCLINATION": 98.9266, "RA_OF_ASC_NODE": 66.8673, "ARG_OF_PERICENTER": 240.9258, "MEAN_ANOMALY": 146.2418, "EPHEMERIS_TYPE": 0, "CLASSIFICATION_TYPE": "U", "NORAD_CAT_ID": 30505, "ELEMENT_SET_NO": 999, "REV_AT_EPOCH": 96930, "BSTAR": 0.0023949632, "MEAN_MOTION_DOT": 5.364e-05, "MEAN_MOTION_DDOT": 0}, "tle": {"line1": "1 30505U 99025AHT 25347.20240406  .00005364  00000+0  23950-2 0  9995", "line2": "2 30505  98.9266  66.8673 0063803 240.9258 146.2418 14.22041177969303"}}, "geometry": {"type": "Point", "coordinates": [179.09846539058668, -80.42729196443699]}}, {"type": "Feature", "properties": {"norad_id": 30506, "name": "FENGYUN 1C DEB", "group": "fengyun-1c-debris", "lat": -44.99408372871243, "lon": 164.33175580795512, "alt_km": 894.5507715742269, "timestamp": "2025-12-14T03:55:53.064239+00:00", "meta": {"OBJECT_NAME": "FENGYUN 1C DEB", "OBJECT_ID": "1999-025AHU", "EPOCH": "2025-12-13T06:28:32.975904", "MEAN_MOTION": 14.08651584, "ECCENTRICITY": 0.00702483, "INCLINATION": 98.7571, "RA_OF_ASC_NODE": 352.3286, "ARG_OF_PERICENTER": 346.4722, "MEAN_ANOMALY": 28.8314, "EPHEMERIS_TYPE": 0, "CLASSIFICATION_TYPE": "U", "NORAD_CAT_ID": 30506, "ELEMENT_SET_NO": 999, "REV_AT_EPOCH": 96829, "BSTAR": 0.00042945676, "MEAN_MOTION_DOT": 7.13e-06, "MEAN_MOTION_DDOT": 0}, "tle": {"line1": "1 30506U 99025AHU 25347.26982611  .00000713  00000+0  42946-3 0  9993", "line2": "2 30506  98.7571 352.3286 0070248 346.4722  28.8314 14.08651584968293"}}, "geometry": {"type": "Point", "coordinates": [164.33175580795512, -44.99408372871243]}}, {"type": "Feature", "properties": {"norad_id": 30507, "name": "FENGYUN 1C DEB", "group": "fengyun-1c-debris", "lat": 5.539601420758832, "lon": 51.77490180925519, "alt_km": 940.791050011172, "timestamp": "2025-12-14T03:55:53.064249+00:00", "meta": {"OBJECT_NAME": "FENGYUN 1C DEB", "OBJECT_ID": "1999-025AHV", "EPOCH": "2025-12-10T22:33:52.396992", "MEAN_MOTION": 14.13164072, "ECCENTRICITY": 0.0128396, "INCLINATION": 99.0136, "RA_OF_ASC_NODE": 49.4106, "ARG_OF_PERICENTER": 181.3494, "MEAN_ANOMALY": 353.865, "EPHEMERIS_TYPE": 0, "CLASSIFICATION_TYPE": "U", "NORAD_CAT_ID": 30507, "ELEMENT_SET_NO": 999, "REV_AT_EPOCH": 96472, "BSTAR": 0.0019555, "MEAN_MOTION_DOT": 3.913e-05, "MEAN_MOTION_DDOT": 0}, "tle": {"line1": "1 30507U 99025AHV 25344.94018978  .00003913  00000+0  19555-2 0  9996", "line2": "2 30507  99.0136  49.4106 0128396 181.3494 353.8650 14.13164072964725"}}, "geometry": {"type": "Point", "coordinates": [51.77490180925519, 5.539601420758832]}}, {"type": "Feature", "properties": {"norad_id": 30509, "name": "FENGYUN 1C DEB", "group": "fengyun-1c-debris", "lat": 27.737012039148798, "lon": 44.410085143125144, "alt_km": 868.5689718114763, "timestamp": "2025-12-14T03:55:53.064259+00:00", "meta": {"OBJECT_NAME": "FENGYUN 1C DEB", "OBJECT_ID": "1999-025AHX", "EPOCH": "2025-12-12T22:17:44.614176", "MEAN_MOTION": 14.07652269, "ECCENTRICITY": 0.01017409, "INCLINATION": 98.4652, "RA_OF_ASC_NODE": 218.761, "ARG_OF_PERICENTER": 62.8698, "MEAN_ANOMALY": 313.769, "EPHEMERIS_TYPE": 0, "CLASSIFICATION_TYPE": "U", "NORAD_CAT_ID": 30509, "ELEMENT_SET_NO": 999, "REV_AT_EPOCH": 95725, "BSTAR": 0.0029538181, "MEAN_MOTION_DOT": 5.195e-05, "MEAN_MOTION_DDOT": 0}, "tle": {"line1": "1 30509U 99025AHX 25346.92898859  .00005195  00000+0  29538-2 0  9998", "line2": "2 30509  98.4652 218.7610 0101740  62.8698 313.7690 14.07652269957259"}}, "geometry": {"type": "Point", "coordinates": [44.410085143125144, 27.737012039148798]}}, {"type": "Feature", "properties": {"norad_id": 30510, "name": "FENGYUN 1C DEB", "group": "fengyun-1c-debris", "lat": -47.5848777220297, "lon": 169.96837784911878, "alt_km": 832.8872900820816, "timestamp": "2025-12-14T03:55:53.064272+00:00", "meta": {"OBJECT_NAME": "FENGYUN 1C DEB", "OBJECT_ID": "1999-025AHY", "EPOCH": "2025-12-12T23:55:23.498400", "MEAN_MOTION": 14.12850781, "ECCENTRICITY": 0.00786838, "INCLINATION": 99.2452, "RA_OF_ASC_NODE": 359.0336, "ARG_OF_PERICENTER": 165.5609, "MEAN_ANOMALY": 249.4881, "EPHEMERIS_TYPE": 0, "CLASSIFICATION_TYPE": "U", "NORAD_CAT_ID": 30510, "ELEMENT_SET_NO": 999, "REV_AT_EPOCH": 96578, "BSTAR": 0.0019306212, "MEAN_MOTION_DOT": 3.652e-05, "MEAN_MOTION_DDOT": 0}, "tle": {"line1": "1 30510U 99025AHY 25346.99679975  .00003652  00000+0  19306-2 0  9991", "line2": "2 30510  99.2452 359.0336 0078683 165.5609 249.4881 14.12850781965783"}}, "geometry": {"type": "Point", "coordinates": [169.96837784911878, -47.5848777220297]}}, {"type": "Feature", "properties": {"norad_id": 30514, "name": "FENGYUN 1C DEB", "group": "fengyun-1c-debris", "lat": 54.23961660620769, "lon": -156.4839790189376, "alt_km": 668.9076312432207, "timestamp": "2025-12-14T03:55:53.064282+00:00", "meta": {"OBJECT_NAME": "FENGYUN 1C DEB", "OBJECT_ID": "1999-025AJC", "EPOCH": "2025-12-13T00:34:44.690304", "MEAN_MOTION": 14.34357361, "ECCENTRICITY": 0.01745419, "INCLINATION": 98.4133, "RA_OF_ASC_NODE": 10.5469, "ARG_OF_PERICENTER": 93.2921, "MEAN_ANOMALY": 268.8248, "EPHEMERIS_TYPE": 0, "CLASSIFICATION_TYPE": "U", "NORAD_CAT_ID": 30514, "ELEMENT_SET_NO": 999, "REV_AT_EPOCH": 98229, "BSTAR": 0.00079328983, "MEAN_MOTION_DOT": 2.603e-05, "MEAN_MOTION_DDOT": 0}, "tle": {"line1": "1 30514U 99025AJC 25347.02412836  .00002603  00000+0  79329-3 0  9998", "line2": "2 30514  98.4133  10.5469 0174541  93.2921 268.8248 14.34357361982291"}}, "geometry": {"type": "Point", "coordinates": [-156.4839790189376, 54.23961660620769]}}]}